[{"OBJECT_NAME":"CARTOSAT-2A","OBJECT_ID":"2008-021A","EPOCH":"2026-03-10T00:17:01.509792","MEAN_MOTION":14.79100763,"ECCENTRICITY":0.00132764,"INCLINATION":97.7772,"RA_OF_ASC_NODE":121.0502,"ARG_OF_PERICENTER":75.3983,"MEAN_ANOMALY":284.87,"EPHEMERIS_TYPE":0,"CLASSIFICATION_TYPE":"U","NORAD_CAT_ID":32783,"ELEMENT_SET_NO":999,"REV_AT_EPOCH":96414,"BSTAR":9.5052975e-5,"MEAN_MOTION_DOT":6.55e-6,"MEAN_MOTION_DDOT":0},{"OBJECT_NAME":"CZ-6A DEB","OBJECT_ID":"2024-140MQ","EPOCH":"2026-03-09T14:05:04.945920","MEAN_MOTION":14.57255116,"ECCENTRICITY":0.0124602,"INCLINATION":88.9858,"RA_OF_ASC_NODE":281.4248,"ARG_OF_PERICENTER":247.0195,"MEAN_ANOMALY":111.7831,"EPHEMERIS_TYPE":0,"CLASSIFICATION_TYPE":"U","NORAD_CAT_ID":61074,"ELEMENT_SET_NO":999,"REV_AT_EPOCH":8205,"BSTAR":0.00041723,"MEAN_MOTION_DOT":2.114e-5,"MEAN_MOTION_DDOT":0}]
